NORAD_CAT_ID,OBJECT_NAME,OBJECT_TYPE,EPOCH,MEAN_MOTION,ECCENTRICITY,INCLINATION,RA_OF_ASC_NODE,ARG_OF_PERICENTER,MEAN_ANOMALY,BSTAR,MEAN_MOTION_DOT,MEAN_MOTION_DDOT,TLE_LINE0,TLE_LINE1,TLE_LINE2,SEMIMAJOR_AXIS,PERIOD,APOGEE,PERIGEE,DECAYED
52994.0,STARLINK-4256,PAYLOAD,2024-04-19 19:17:18,15.08841801,0.0001646,53.217,306.6475,76.1348,283.9828,0.00037825,5.737e-05,0.0,0 STARLINK-4256,1 52994U 22076J   24110.80368745  .00005737  00000-0  37825-3 0  9995,2 52994  53.2170 306.6475 0001646  76.1348 283.9828 15.08841801 98841,6917.875,95.437,540.879,538.601,0.0
52994.0,STARLINK-4256,PAYLOAD,2024-04-19 22:28:04,15.08847229,0.0001783,53.2179,306.0488,73.5339,286.5849,0.00042776,6.528e-05,0.0,0 STARLINK-4256,1 52994U 22076J   24110.93616461  .00006528  00000-0  42776-3 0  9990,2 52994  53.2179 306.0488 0001783  73.5339 286.5849 15.08847229 99338,6917.858,95.437,540.957,538.49,0.0
52994.0,STARLINK-4256,PAYLOAD,2024-04-20 12:46:32,15.08854318,0.0001958,53.2185,303.3757,124.4537,235.664,6.2476e-05,7.07e-06,0.0,0 STARLINK-4256,1 52994U 22076J   24111.53231637  .00000707  00000-0  62476-4 0  9998,2 52994  53.2185 303.3757 0001958 124.4537 235.6640 15.08854318 98952,6917.837,95.437,541.056,538.347,0.0
52994.0,STARLINK-4256,PAYLOAD,2024-04-20 19:08:04,15.08848915,0.0001707,53.2182,302.1826,115.1704,244.9465,4.6439e-06,-2.14e-06,0.0,0 STARLINK-4256,1 52994U 22076J   24111.79727779 -.00000214  00000-0  46439-5 0  9999,2 52994  53.2182 302.1826 0001707 115.1704 244.9465 15.08848915 98996,6917.853,95.437,540.899,538.537,0.0
52994.0,STARLINK-4256,PAYLOAD,2024-04-20 22:18:51,15.08845555,0.0001779,53.2184,301.5907,118.777,241.3401,-3.5659e-05,-8.56e-06,0.0,0 STARLINK-4256,1 52994U 22076J   24111.92975920 -.00000856  00000-0 -35659-4 0  9991,2 52994  53.2184 301.5907 0001779 118.7770 241.3401 15.08845555 99485,6917.863,95.437,540.959,538.498,0.0
52994.0,STARLINK-4256,PAYLOAD,2024-04-21 12:37:19,15.08838135,0.0001843,53.2182,298.9147,116.5204,243.5977,-8.1625e-05,-1.587e-05,0.0,0 STARLINK-4256,1 52994U 22076J   24112.52592356 -.00001587  00000-0 -81625-4 0  9992,2 52994  53.2182 298.9147 0001843 116.5204 243.5977 15.08838135 99105,6917.886,95.438,541.026,538.476,0.0
52994.0,STARLINK-4256,PAYLOAD,2024-04-21 22:09:38,15.08836866,0.0001773,53.2186,297.1304,120.5184,239.5984,-8.3639e-05,-1.619e-05,0.0,0 STARLINK-4256,1 52994U 22076J   24112.92336785 -.00001619  00000-0 -83639-4 0  9991,2 52994  53.2186 297.1304 0001773 120.5184 239.5984 15.08836866 99167,6917.89,95.438,540.982,538.528,0.0
52994.0,STARLINK-4256,PAYLOAD,2024-04-22 17:14:16,15.08829507,0.000167,53.218,293.5626,120.9165,239.1991,9.2283e-06,-1.41e-06,0.0,0 STARLINK-4256,1 52994U 22076J   24113.71825127 -.00000141  00000-0  92283-5 0  9996,2 52994  53.2180 293.5626 0001670 120.9165 239.1991 15.08829507 99750,6917.912,95.438,540.933,538.622,0.0
52994.0,STARLINK-4256,PAYLOAD,2024-04-23 10:43:31,15.08831062,0.0001559,53.2181,290.2915,119.2947,240.8201,6.0675e-05,6.78e-06,0.0,0 STARLINK-4256,1 52994U 22076J   24114.44689317  .00000678  00000-0  60675-4 0  9999,2 52994  53.2181 290.2915 0001559 119.2947 240.8201 15.08831062 99393,6917.908,95.438,540.851,538.694,0.0
52994.0,STARLINK-4256,PAYLOAD,2024-04-23 17:05:03,15.08835062,0.0001427,53.2173,289.103,106.5056,253.6093,0.00010889,1.445e-05,0.0,0 STARLINK-4256,1 52994U 22076J   24114.71185054  .00001445  00000-0  10889-3 0  9992,2 52994  53.2173 289.1030 0001427 106.5056 253.6093 15.08835062 99905,6917.895,95.438,540.748,538.773,0.0
52994.0,STARLINK-4256,PAYLOAD,2024-04-24 10:34:18,15.08836106,0.0001332,53.2173,285.8341,101.2322,258.882,0.00010384,1.365e-05,0.0,0 STARLINK-4256,1 52994U 22076J   24115.44049277  .00001365  00000-0  10384-3 0  9990,2 52994  53.2173 285.8341 0001332 101.2322 258.8820 15.08836106 99541,6917.892,95.438,540.679,538.836,0.0
52994.0,STARLINK-4256,PAYLOAD,2024-04-24 16:55:51,15.088316,0.0001556,53.2172,284.6424,118.6897,241.4251,6.0763e-05,6.79e-06,0.0,0 STARLINK-4256,1 52994U 22076J   24115.70545739  .00000679  00000-0  60763-4 0  9997,2 52994  53.2172 284.6424 0001556 118.6897 241.4251 15.08831600100055,6917.906,95.438,540.847,538.695,0.0
52994.0,STARLINK-4256,PAYLOAD,2024-04-25 15:11:15,15.08840354,0.0001417,53.2171,280.4777,114.3784,245.7356,-1.6164e-05,-5.45e-06,0.0,0 STARLINK-4256,1 52994U 22076J   24116.63281710 -.00000545  00000-0 -16164-4 0  9996,2 52994  53.2171 280.4777 0001417 114.3784 245.7356 15.08840354 99723,6917.879,95.438,540.725,538.764,0.0
52994.0,STARLINK-4256,PAYLOAD,2024-04-25 19:57:24,15.08841291,0.000114,53.2163,279.5864,86.9915,273.1208,5.3791e-05,5.68e-06,0.0,0 STARLINK-4256,1 52994U 22076J   24116.83153592  .00000568  00000-0  53791-4 0  9994,2 52994  53.2163 279.5864 0001140  86.9915 273.1208 15.08841291100223,6917.876,95.437,540.53,538.953,0.0
52994.0,STARLINK-4256,PAYLOAD,2024-04-26 10:15:53,15.08833679,0.0001113,53.2167,276.9122,78.2003,281.9114,5.008e-05,5.09e-06,0.0,0 STARLINK-4256,1 52994U 22076J   24117.42770110  .00000509  00000-0  50080-4 0  9994,2 52994  53.2167 276.9122 0001113  78.2003 281.9114 15.08833679100311,6917.9,95.438,540.535,538.995,0.0
52994.0,STARLINK-4256,PAYLOAD,2024-04-26 16:37:25,15.08835886,0.000149,53.2173,275.7251,109.3788,250.7366,0.00012175,1.65e-05,0.0,0 STARLINK-4256,1 52994U 22076J   24117.69265719  .00001650  00000-0  12175-3 0  9997,2 52994  53.2173 275.7251 0001490 109.3788 250.7366 15.08835886 99886,6917.893,95.438,540.789,538.727,0.0
52994.0,STARLINK-4256,PAYLOAD,2024-04-27 03:45:05,15.08863986,0.0001166,53.2167,273.6451,91.5783,268.5342,0.00025493,3.774e-05,0.0,0 STARLINK-4256,1 52994U 22076J   24118.15631270  .00003774  00000-0  25493-3 0  9994,2 52994  53.2167 273.6451 0001166  91.5783 268.5342 15.08863986100421,6917.807,95.436,540.479,538.865,0.0
52994.0,STARLINK-4256,PAYLOAD,2024-04-27 10:06:38,15.08863821,0.0002684,53.2171,272.4536,82.9397,277.1901,0.00019644,2.841e-05,0.0,0 STARLINK-4256,1 52994U 22076J   24118.42127790  .00002841  00000-0  19644-3 0  9996,2 52994  53.2171 272.4536 0002684  82.9397 277.1901 15.08863821 99992,6917.808,95.436,541.529,537.816,0.0
52994.0,STARLINK-4256,PAYLOAD,2024-04-27 16:28:11,15.08844187,0.0001072,53.2159,271.2658,87.8405,272.2709,3.9335e-05,3.38e-06,0.0,0 STARLINK-4256,1 52994U 22076J   24118.68624844  .00000338  00000-0  39335-4 0  9995,2 52994  53.2159 271.2658 0001072  87.8405 272.2709 15.08844187100500,6917.868,95.437,540.474,538.991,0.0
52994.0,STARLINK-4256,PAYLOAD,2024-04-28 03:35:51,15.0886441,0.0001086,53.2174,269.1792,91.633,268.4787,0.00014397,2.006e-05,0.0,0 STARLINK-4256,1 52994U 22076J   24119.14990634  .00002006  00000-0  14397-3 0  9994,2 52994  53.2174 269.1792 0001086  91.6330 268.4787 15.08864410100578,6917.806,95.436,540.422,538.92,0.0
52994.0,STARLINK-4256,PAYLOAD,2024-04-28 14:43:36,15.08827463,0.0001345,53.2178,267.0991,96.4644,263.6502,-0.00020527,-3.552e-05,0.0,0 STARLINK-4256,1 52994U 22076J   24119.61362141 -.00003552  00000-0 -20527-3 0  9993,2 52994  53.2178 267.0991 0001345  96.4644 263.6502 15.08827463100174,6917.919,95.438,540.714,538.853,0.0
52994.0,STARLINK-4256,PAYLOAD,2024-04-28 19:29:45,15.08836783,0.0001277,53.2179,266.2072,88.8704,271.2435,-0.00011564,-2.128e-05,0.0,0 STARLINK-4256,1 52994U 22076J   24119.81233449 -.00002128  00000-0 -11564-3 0  9992,2 52994  53.2179 266.2072 0001277  88.8704 271.2435 15.08836783100672,6917.89,95.438,540.639,538.872,0.0
52994.0,STARLINK-4256,PAYLOAD,2024-04-29 14:34:23,15.0882411,0.0001202,53.2185,262.6387,99.4435,260.6693,3.6103e-05,2.87e-06,0.0,0 STARLINK-4256,1 52994U 22076J   24120.60721931  .00000287  00000-0  36103-4 0  9998,2 52994  53.2185 262.6387 0001202  99.4435 260.6693 15.08824110100326,6917.929,95.439,540.625,538.962,0.0
52994.0,STARLINK-4256,PAYLOAD,2024-04-29 16:09:46,15.08825536,0.0001108,53.2179,262.3419,95.7335,264.3784,3.1804e-05,2.18e-06,0.0,0 STARLINK-4256,1 52994U 22076J   24120.67345806  .00000218  00000-0  31804-4 0  9995,2 52994  53.2179 262.3419 0001108  95.7335 264.3784 15.08825536100331,6917.925,95.438,540.556,539.023,0.0
52994.0,STARLINK-4256,PAYLOAD,2024-04-30 12:49:44,15.08949599,0.0002002,53.2177,258.4753,66.8597,293.2606,-0.0015819,-0.00025452,0.0,0 STARLINK-4256,1 52994U 22076J   24121.53454758 -.00025452  00000-0 -15819-2 0  9993,2 52994  53.2177 258.4753 0002002  66.8597 293.2606 15.08949599100935,6917.545,95.431,540.795,538.026,0.0
52994.0,STARLINK-4256,PAYLOAD,2024-04-30 14:25:07,15.08949534,0.0001985,53.2174,258.1776,66.6296,293.4905,-0.0016237,-0.00026114,0.0,0 STARLINK-4256,1 52994U 22076J   24121.60078465 -.00026114  00000-0 -16237-2 0  9999,2 52994  53.2174 258.1776 0001985  66.6296 293.4905 15.08949534100479,6917.546,95.431,540.784,538.037,0.0
52994.0,STARLINK-4256,PAYLOAD,2024-04-30 20:46:43,15.08829053,0.0001113,53.217,256.9888,75.3926,284.719,0.00010499,1.383e-05,0.0,0 STARLINK-4256,1 52994U 22076J   24121.86578078  .00001383  00000-0  10499-3 0  9996,2 52994  53.2170 256.9888 0001113  75.3926 284.7190 15.08829053100983,6917.914,95.438,540.549,539.009,0.0
52994.0,STARLINK-4256,PAYLOAD,2024-05-01 09:29:48,15.08832564,0.0001255,53.2187,254.616,94.056,266.0576,7.3302e-05,8.79e-06,0.0,0 STARLINK-4256,1 52994U 22076J   24122.39570366  .00000879  00000-0  73302-4 0  9999,2 52994  53.2187 254.6160 0001255  94.0560 266.0576 15.08832564100597,6917.903,95.438,540.636,538.9,0.0
52994.0,STARLINK-4256,PAYLOAD,2024-05-01 15:51:21,15.08837566,0.000128,53.2192,253.4267,91.3031,268.8108,8.7086e-05,1.098e-05,0.0,0 STARLINK-4256,1 52994U 22076J   24122.66066074  .00001098  00000-0  87086-4 0  9993,2 52994  53.2192 253.4267 0001280  91.3031 268.8108 15.08837566100632,6917.888,95.438,540.638,538.867,0.0
52994.0,STARLINK-4256,PAYLOAD,2024-05-02 01:23:39,15.08842708,0.0001651,53.2171,251.6372,82.4194,277.6985,0.000123,1.67e-05,0.0,0 STARLINK-4256,1 52994U 22076J   24123.05809589  .00001670  00000-0  12300-3 0  9995,2 52994  53.2171 251.6372 0001651  82.4194 277.6985 15.08842708101163,6917.872,95.437,540.879,538.595,0.0
